satname,norad_id,inclination_deg,eccentricity,mean_motion_rev_per_day,perigee_km,apogee_km,l1,l2
STARLINK-1225,45187,53.158,0.0002674,15.32350088,466.97193016340316,470.6336735694422,1 45187U 20012K   26125.35088112  .00058694  00000+0  18503-2 0  9994,2 45187  53.1580 136.2802 0002674  55.4011 304.7243 15.32350088343611
STARLINK-1230,45189,53.1567,0.0002983,15.32293414,466.9291373732549,471.01412238184093,1 45189U 20012M   26125.29524625  .00064196  00000+0  20247-2 0  9995,2 45189  53.1567 136.5979 0002983  51.8043 308.3227 15.32293414340836
STARLINK-1234,45190,53.0411,0.0008562,15.70131197,352.7537880891814,364.2896424732289,1 45190U 20012N   26125.04231144  .00065938  00000+0  53435-3 0  9992,2 45190  53.0411  47.9867 0008562 109.3999 250.7943 15.70131197344711
STARLINK-1269,45197,53.1561,0.0002895,15.32298942,466.97292870068486,470.9373950624158,1 45197U 20012V   26125.35620458  .00018851  00000+0  60626-3 0  9995,2 45197  53.1561 136.1624 0002895  36.9788 323.1413 15.32298942343593
STARLINK-1154,45198,53.0429,0.0003619,15.55150756,399.26080745129,404.16806392043964,1 45198U 20012W   26125.07952735  .00128216  00000+0  18448-2 0  9992,2 45198  53.0429  99.1089 0003619  11.6007 348.5086 15.55150756344041
STARLINK-1199,45201,53.1568,0.0002638,15.32272104,467.2288296143679,470.84139762151244,1 45201U 20012Z   26125.39222557  .00053628  00000+0  16969-2 0  9994,2 45201  53.1568 120.2588 0002638  69.0588 291.0696 15.32272104343845
STARLINK-1209,45206,53.0402,0.0011765,15.61047039,376.6750040765701,392.5877981243593,1 45206U 20012AE  26125.51078349  .00054970  00000+0  64124-3 0  9999,2 45206  53.0402  58.1904 0011765  99.8048 260.4293 15.61047039343763
STARLINK-1231,45212,53.0403,0.000456,15.25755796,485.3856665118901,491.6480548328227,1 45212U 20012AL  26125.94849645  .00041861  00000+0  16223-2 0  9999,2 45212  53.0403 111.7976 0004560   0.1962 359.9037 15.25755796343958
STARLINK-1271,45217,53.1569,0.0002581,15.32287182,467.2229516898924,470.7574387480636,1 45217U 20012AR  26125.66668981  .00009963  00000+0  32642-3 0  9996,2 45217  53.1569 119.1253 0002581  63.0532  12.8576 15.32287182  5864
STARLINK-1191,45222,53.1549,0.0004943,15.35909187,454.8420798769466,461.6005036842007,1 45222U 20012AW  26124.93489521  .00061223  00000+0  17230-2 0  9994,2 45222  53.1549  96.4667 0004943  70.2379 289.9157 15.35909187344145
STARLINK-1212,45223,53.0416,0.0005195,15.63534201,373.948137620092,380.9672004812355,1 45223U 20012AX  26126.00002315  .00086578  00000+0  91256-3 0  9998,2 45223  53.0416  71.8380 0005195  51.0661 226.1096 15.63534201  5903
STARLINK-1215,45225,53.1569,0.0002525,15.32491757,466.6520792682022,470.10957076983686,1 45225U 20012AZ  26125.06856601  .00076725  00000+0  23987-2 0  9998,2 45225  53.1569  96.2179 0002525  91.1523 268.9768 15.32491757344111
STARLINK-1221,45227,53.0659,0.0003124,15.43838399,432.6649872254993,436.9217061060972,1 45227U 20012BB  26125.07124638  .00016849  00000+0  37418-3 0  9995,2 45227  53.0659   2.0317 0003124 151.9216 208.1959 15.43838399345412
STARLINK-1222,45228,53.0542,0.0001033,15.53061046,407.09380575175965,408.4957792600917,1 45228U 20012BC  26125.57342464  .00041540  00000+0  65715-3 0  9997,2 45228  53.0542  69.3591 0001033  50.9430 309.1672 15.53061046344452
STARLINK-1226,45229,53.1574,0.0003386,15.40642064,441.90313119620805,446.523226737404,1 45229U 20012BD  26125.60727893  .00054102  00000+0  13081-2 0  9991,2 45229  53.1574  91.7547 0003386  80.5454 279.5934 15.40642064344167
STARLINK-1227,45230,53.1563,0.0004446,15.40774173,440.7901554311675,446.8562424400616,1 45230U 20012BE  26125.61973165  .00054324  00000+0  13075-2 0  9998,2 45230  53.1563  91.8386 0004446  81.6363 278.5147 15.40774173344283
STARLINK-1246,45235,53.1563,0.0003159,15.32473844,466.2713454529994,470.59700912281005,1 45235U 20012BK  26125.43039269  .00051585  00000+0  16228-2 0  9990,2 45235  53.1563 135.4709 0003159  68.7478 291.3860 15.32473844343663
STARLINK-1270,45237,53.0431,0.0004982,15.56625307,394.05658528076856,400.8077624055859,1 45237U 20012BM  26125.83590631  .00070445  00000+0  96971-3 0  9991,2 45237  53.0431  72.5489 0004982  67.4811 292.6727 15.56625307344549
STARLINK-1279,45360,53.0351,0.000873,15.70034091,352.9181400196758,364.6808311234827,1 45360U 20019A   26126.00002315  .00174681  00000+0  13951-2 0  9995,2 45360  53.0351 178.0546 0008730   0.8564 136.0091 15.70034091  5925
STARLINK-1301,45361,53.039,0.000627,15.72341965,347.98565735641114,356.42550695443424,1 45361U 20019B   26125.42901868  .00069406  00000+0  51268-3 0  9994,2 45361  53.0390 184.0676 0006270  22.1513 337.9775 15.72341965339517
STARLINK-1262,45366,53.1582,0.0001881,15.3146108,470.16388815682694,472.7407036499453,1 45366U 20019G   26125.64036065  .00043586  00000+0  14186-2 0  9999,2 45366  53.1582 260.7151 0001881 337.6874  22.4045 15.31461080338479
STARLINK-1273,45367,53.0477,0.0004274,15.52815429,405.6097382945645,411.410964450517,1 45367U 20019H   26125.58864378  .00078862  00000+0  12458-2 0  9994,2 45367  53.0477 242.3830 0004274 296.2812  63.7758 15.52815429338712
STARLINK-1277,45369,53.0454,0.0005738,15.58786599,387.2835145282679,395.0519686497155,1 45369U 20019K   26125.74237830  .00075047  00000+0  95168-3 0  9993,2 45369  53.0454 237.2144 0005738 282.9088  77.1282 15.58786599338805
STARLINK-1281,45370,53.1575,0.0002446,15.32423869,466.9083211330517,470.2577365711668,1 45370U 20019L   26125.73717779  .00044250  00000+0  13973-2 0  9994,2 45370  53.1575 260.0977 0002446 330.5985  29.4879 15.32423869338496
STARLINK-1300,45374,53.1606,0.0002948,15.32655541,465.874847551152,469.91126687288397,1 45374U 20019Q   26125.75736127  .00051668  00000+0  16162-2 0  9992,2 45374  53.1606 259.9943 0002948 345.5898  14.5019 15.32655541338496
STARLINK-1302,45375,53.0473,0.0003305,15.64134746,373.49621188694437,377.9605168928065,1 45375U 20019R   26125.57393125  .00085718  00000+0  88286-3 0  9990,2 45375  53.0473 235.1570 0003305 322.4834  37.5949 15.64134746338819
STARLINK-1304,45376,53.0449,0.0004685,15.58090244,390.0121575779003,396.35688584374384,1 45376U 20019S   26125.72100740  .00075716  00000+0  98574-3 0  9995,2 45376  53.0449 234.5033 0004685 310.8939  49.1666 15.58090244338833
STARLINK-1305,45377,53.0385,0.0009475,15.64648708,367.85137314183703,380.6471451028747,1 45377U 20019T   26125.64424415  .00050523  00000+0  51343-3 0  9997,2 45377  53.0385 215.2843 0009475 326.4043  33.6369 15.64648708339109
STARLINK-1319,45379,53.0414,0.0003793,15.72490491,349.2291178611622,354.33443424467623,1 45379U 20019V   26125.68807144  .00065831  00000+0  48397-3 0  9990,2 45379  53.0414 208.3709 0003793 344.5402  15.5499 15.72490491339202
STARLINK-1266,45383,53.046,0.0004287,15.54557365,400.53235808196405,406.34688187593474,1 45383U 20019Z   26125.65819199  .00074130  00000+0  11004-2 0  9991,2 45383  53.0460 219.5873 0004287 304.0051  56.0552 15.54557365339039
STARLINK-1267,45384,53.0464,0.0006444,15.60309019,382.4044394724815,391.12304354814114,1 45384U 20019AA  26125.62922819  .00084194  00000+0  10056-2 0  9990,2 45384  53.0464 211.7189 0006444 354.5054   5.5886 15.60309019339147
STARLINK-1272,45386,53.04,0.0007875,15.66264425,364.29089156952796,374.91858480717474,1 45386U 20019AC  26125.56309992  .00049003  00000+0  46749-3 0  9995,2 45386  53.0400 192.0321 0007875 346.1635  13.9163 15.66264425339417
STARLINK-1274,45387,53.0229,0.000904,15.56417764,391.9088341198958,404.1601521795101,1 45387U 20019AD  26125.46251837  .00084108  00000+0  11620-2 0  9993,2 45387  53.0229 189.6229 0009040   8.6483 351.4682 15.56417764339436
STARLINK-1280,45388,53.0383,0.0005097,15.73221516,346.26765437852373,353.1260081861328,1 45388U 20019AE  26125.58624561  .00071080  00000+0  50574-3 0  9992,2 45388  53.0383 201.4259 0005097 354.4034   5.6926 15.73221516339274
STARLINK-1283,45389,53.0403,0.0003779,15.67487527,363.5454857851728,368.6427756737785,1 45389U 20019AF  26125.48027553  .00066274  00000+0  59946-3 0  9991,2 45389  53.0403 191.8375 0003779  15.1153 344.9974 15.67487527339414
STARLINK-1284,45390,53.0409,0.0004196,15.66663145,365.6289386055996,371.2906826490789,1 45390U 20019AG  26126.00002315 -.00037721  00000+0 -34881-3 0  9999,2 45390  53.0409 212.9065 0004196 290.9936 147.6503 15.66663145  5900
STARLINK-1297,45395,53.042,0.000574,15.65088174,369.1100400654059,376.86032833286663,1 45395U 20019AM  26125.71210676  .00056793  00000+0  56684-3 0  9995,2 45395  53.0420 212.9685 0005740 304.0762  55.9707 15.65088174338319
STARLINK-1307,45397,53.0531,0.0001212,15.54532812,402.68909159212944,404.3329630739554,1 45397U 20019AP  26125.53137182  .00040101  00000+0  60178-3 0  9996,2 45397  53.0531 217.0482 0001212  20.1365 339.9692 15.54532812338881
STARLINK-1255,45399,53.037,0.000609,15.61507986,379.18273671163297,387.4181675283153,1 45399U 20019AR  26125.42554054  .00041659  00000+0  48078-3 0  9991,2 45399  53.0370 187.4782 0006090 358.9314   1.1684 15.61507986339277
STARLINK-1260,45404,53.1561,0.0004399,15.34971956,457.99525629261734,464.01233236346707,1 45404U 20019AW  26125.64244369  .00046716  00000+0  13600-2 0  9998,2 45404  53.1561 223.8858 0004399 334.5406  25.5379 15.34971956338708
STARLINK-1263,45405,53.1567,0.0003783,15.32593217,465.48873171297964,470.6685784776246,1 45405U 20019AX  26125.49131669  .00098369  00000+0  30533-2 0  9995,2 45405  53.1567 225.2298 0003783 355.2096   4.8869 15.32593217338678
STARLINK-1265,45406,53.1566,0.0004014,15.35207863,457.55820425262664,463.0481040083632,1 45406U 20019AY  26125.51222115  .00046180  00000+0  13346-2 0  9993,2 45406  53.1566 224.5639 0004014 327.0775  32.9977 15.35207863338683
STARLINK-1278,45408,53.0405,0.0005912,15.65789295,366.9796402554184,374.95978403185654,1 45408U 20019BA  26125.62869503  .00047735  00000+0  46466-3 0  9992,2 45408  53.0405 212.5218 0005912 331.5284  28.5407 15.65789295338854
